TRANSIT 16 [?]          
1 02807U 67048A   17284.93347937  .00000081  00000-0  11078-3 0  9998
2 02807  89.6188 100.2824 0022295 100.1024  15.8289 13.50162042480171
TRANSIT 17 [?]          
1 02965U 67092A   17284.90486705  .00000065  00000-0  80867-4 0  9991
2 02965  89.2481 250.7672 0045616 256.0354 159.4973 13.52882503467486
TRANSIT 18 [?]          
1 03133U 68012A   17284.95103215  .00000079  00000-0  10564-3 0  9990
2 03133  89.9588 274.7437 0076063 169.7975 255.2801 13.50993996166335
NNSS 19 [?]             
1 04507U 70067A   17285.06332210  .00000064  00000-0  79552-4 0  9998
2 04507  89.8355 260.8007 0170212 292.6130  65.7093 13.50662546319792
NNSS O-20 [?]           
1 06909U 73081A   17284.63871714  .00000073  00000-0  64295-4 0  9992
2 06909  89.8216 310.4970 0157784  17.5892 343.0647 13.70456381395101
TRANSAT [?]             
1 10457U 77106A   17284.72804868  .00000029  00000-0  30968-4 0  9994
2 10457  89.7638 169.2520 0025936 151.6973 266.6960 13.48576073965236
NOVA I [?]              
1 12458U 81044A   17284.95218097  .00000038  00000-0  68915-4 0  9994
2 12458  89.9470 120.9400 0015824  54.7248  63.7690 13.22971303757309
NOVA 3 [?]              
1 15362U 84110A   17284.91220059  .00000027  00000-0  43843-4 0  9996
2 15362  90.0500  55.3495 0030170 272.7591 203.9538 13.22739085592509
OSCAR 30 [?]            
1 15935U 85066A   17284.92121515  .00000051  00000-0  78021-4 0  9994
2 15935  90.1367  51.7676 0168194 219.2718 255.1318 13.35629055566193
OSCAR 24 [?]            
1 15936U 85066B   17284.90222655  .00000064  00000-0  10204-3 0  9992
2 15936  90.1256  45.4283 0168775 223.7272 253.4642 13.35506149568354
POLAR BEAR [?]          
1 17070U 86088A   17285.19735958  .00000041  00000-0  30797-4 0  9990
2 17070  89.5330 321.3433 0040772 113.3839 290.0845 13.74739455550109
OSCAR 27 [?]            
1 18361U 87080A   17284.68178941  .00000019  00000-0  16532-4 0  9999
2 18361  90.3311 339.3761 0106433 126.6711 234.4277 13.44441046474578
OSCAR 29 [?]            
1 18362U 87080B   17284.74367800  .00000006  00000-0 -48068-5 0  9998
2 18362  90.3315 339.6061 0107730 143.0654 333.0358 13.44033244474235
OSCAR 23 [?]            
1 19070U 88033A   17284.95719535  .00000034  00000-0  53783-4 0  9992
2 19070  90.3604 277.5694 0189980 195.3319 225.9236 13.27415292426655
OSCAR 32 [?]            
1 19071U 88033B   17284.95664969 -.00000000  00000-0 -16696-4 0  9990
2 19071  90.3602 277.6444 0188299 184.6102 240.4536 13.27596945426875
NOVA 11 [?]             
1 19223U 88052A   17284.93932993  .00000036  00000-0  66228-4 0  9996
2 19223  89.9592  86.5576 0029351 318.0795 155.7049 13.22657698415023
OSCAR 25 [?]            
1 19419U 88074A   17284.84602038  .00000043  00000-0  56218-4 0  9997
2 19419  89.9914  18.7950 0098347 115.3449   3.6996 13.42174039426104
OSCAR 31 [?]            
1 19420U 88074B   17284.80088078  .00000031  00000-0  35171-4 0  9999
2 19420  89.9921  18.8200 0096525 109.7615   0.3280 13.42186663426208
